[{"OBJECT_NAME":"ARVAKER-2","OBJECT_ID":"2025-135AR","EPOCH":"2026-03-09T22:22:52.921344","MEAN_MOTION":14.93083026,"ECCENTRICITY":1.249e-5,"INCLINATION":97.761,"RA_OF_ASC_NODE":184.2957,"ARG_OF_PERICENTER":109.4722,"MEAN_ANOMALY":250.6511,"EPHEMERIS_TYPE":0,"CLASSIFICATION_TYPE":"U","NORAD_CAT_ID":64567,"ELEMENT_SET_NO":999,"REV_AT_EPOCH":3906,"BSTAR":0.00042135986,"MEAN_MOTION_DOT":4.333e-5,"MEAN_MOTION_DDOT":0},{"OBJECT_NAME":"CZ-6A DEB","OBJECT_ID":"2024-140AF","EPOCH":"2026-03-09T22:09:11.094912","MEAN_MOTION":15.07921552,"ECCENTRICITY":0.0088688,"INCLINATION":88.2867,"RA_OF_ASC_NODE":226.5959,"ARG_OF_PERICENTER":92.2632,"MEAN_ANOMALY":268.8765,"EPHEMERIS_TYPE":0,"CLASSIFICATION_TYPE":"U","NORAD_CAT_ID":60630,"ELEMENT_SET_NO":999,"REV_AT_EPOCH":8531,"BSTAR":0.0046395908,"MEAN_MOTION_DOT":0.00078672,"MEAN_MOTION_DDOT":0}]
